[{"city":"Kraków","postcode":"31-612","address":"Os. Kombatantów 20 ","id":"KRA012"},{"city":"Kraków","postcode":"30-444","address":"Góra Libertowska 2 ","id":"KRA013"},{"city":"Kraków","postcode":"31-801","address":"Władysława Broniewskiego 1 ","id":"KRA01A"},{"city":"Kraków","postcode":"31-564","address":"Al. Pokoju 91 ","id":"KRA01AP"},{"city":"Balice","postcode":"32-083","address":"Na lotnisko 19 ","id":"KRA01B"},{"city":"Kraków","postcode":"31-425","address":"al. 29 Listopada 39B ","id":"KRA01C"},{"city":"Kraków","postcode":"30-701","address":"Przemysłowa 12 ","id":"KRA01E"},{"city":"Kraków","postcode":"31-878","address":"Orlińskiego 1 ","id":"KRA01I"},{"city":"Kraków","postcode":"30-415","address":"Wadowicka 4 ","id":"KRA01M"},{"city":"Kraków","postcode":"31-315","address":"Radzikowskiego 140 ","id":"KRA01MP"},{"city":"Kraków","postcode":"30-856","address":"Bieżanowska 276 ","id":"KRA01N"},{"city":"Kraków","postcode":"31-357","address":"Josepha Conrada 33 ","id":"KRA02A"},{"city":"Kraków","postcode":"31-982","address":"al. Jana Pawła II 200 ","id":"KRA02AP"},{"city":"Kraków","postcode":"30-063","address":"3 Maja 5 ","id":"KRA02B"},{"city":"Kraków","postcode":"30-347","address":"Kapelanka 30 ","id":"KRA02C"},{"city":"Kraków","postcode":"30-428","address":"Rynek Fałęcki 1 ","id":"KRA02E"},{"city":"Kraków","postcode":"30-149","address":"Balicka 84 ","id":"KRA02I"},{"city":"Kraków","postcode":"30-363","address":"Kobierzyńska 114A ","id":"KRA02M"},{"city":"Kraków","postcode":"31-872","address":"Dywizjonu 303 21A ","id":"KRA02MP"},{"city":"Kraków","postcode":"30-347","address":"Kapelanka 54 ","id":"KRA02N"},{"city":"Kraków","postcode":"31-612","address":"Srebrnych Orłów 1 ","id":"KRA03A"},{"city":"Kraków","postcode":"30-418","address":"Zakopiańska 58 ","id":"KRA03B"},{"city":"Kraków","postcode":"30-611","address":"Stojałowskiego 1 ","id":"KRA03C"},{"city":"Kraków","postcode":"30-524","address":"Kamieńskiego 18 ","id":"KRA03I"},{"city":"Kraków","postcode":"30-687","address":"Rżącka 21B ","id":"KRA03M"},{"city":"Kraków","postcode":"30-698","address":"Myślenicka 133 ","id":"KRA03MP"},{"city":"Kraków","postcode":"31-536","address":"Podgórska 34 ","id":"KRA03N"},{"city":"Kraków","postcode":"31-862","address":"os. Niepodległości 19 ","id":"KRA04AP"},{"city":"Kraków","postcode":"30-302","address":"Marii Konopnickiej 78 ","id":"KRA04B"},{"city":"Kraków","postcode":"31-982","address":"Al. Jana Pawła II 196 ","id":"KRA04I"},{"city":"Kraków","postcode":"31-619","address":"Wawelska 22B ","id":"KRA04M"},{"city":"Kraków","postcode":"31-580","address":"Nowohucka 52 ","id":"KRA04MP"},{"city":"Kraków","postcode":"30-552","address":"Wielicka 28A ","id":"KRA04N"},{"city":"Kraków","postcode":"30-721","address":"Lipska 2 ","id":"KRA05A"},{"city":"Kraków","postcode":"31-403","address":"Kamienna 18 ","id":"KRA05B"},{"city":"Kraków","postcode":"30-348","address":"Grota-Roweckiego 33 ","id":"KRA05I"},{"city":"Kraków","postcode":"30-392","address":"Bunscha 18 ","id":"KRA05M"},{"city":"Kraków","postcode":"30-150","address":"Armii Krajowej 10 ","id":"KRA05MP"},{"city":"Kraków","postcode":"31-526","address":"Kielecka 2 ","id":"KRA05N"},{"city":"Kraków","postcode":"30-223","address":"Korzeniowskiego Józefa 36/","id":"KRA06B"},{"city":"Kraków","postcode":"30-707","address":"Powstańców Wielkopolskich 18 ","id":"KRA06M"},{"city":"Kraków","postcode":"31-545","address":"Mogilska 81 ","id":"KRA06MP"},{"city":"Kraków","postcode":"31-261","address":"Wybickiego 10 ","id":"KRA06N"},{"city":"Kraków","postcode":"31-422","address":"Strzelców 4 ","id":"KRA07A"},{"city":"Kraków","postcode":"31-476","address":"Lublańska 38 ","id":"KRA07AP"},{"city":"Kraków","postcode":"31-616","address":"os. Złotego Wieku 14 ","id":"KRA07B"},{"city":"Kraków","postcode":"30-720","address":"Kuklińskiego 17 ","id":"KRA07M"},{"city":"Kraków","postcode":"31-876","address":"Bora Komorowskiego 4 ","id":"KRA07MP"},{"city":"Kraków","postcode":"30-663","address":"Wielicka 183 ","id":"KRA07N"},{"city":"Kraków","postcode":"30-644","address":"Kamieńskiego 57 ","id":"KRA08A"},{"city":"Kraków","postcode":"30-836","address":"Jerzmanowskiego 37 ","id":"KRA08B"},{"city":"Kraków","postcode":"31-215","address":"Żabiniec 56 ","id":"KRA08M"},{"city":"Kraków","postcode":"30-809","address":"Ściegiennego 67A ","id":"KRA08N"},{"city":"Kraków","postcode":"30-072","address":"Budryka 7 ","id":"KRA09A"},{"city":"Kraków","postcode":"30-863","address":"Ćwiklińskiej 14 ","id":"KRA09AP"},{"city":"Kraków","postcode":"30-707","address":"Powstańców Wielkopolskich 13 ","id":"KRA09B"},{"city":"Kraków","postcode":"30-864","address":"Ks. M. Łaczka 35 ","id":"KRA09I"},{"city":"Kraków","postcode":"30-836","address":"Jerzmanowskiego 14A ","id":"KRA09M"},{"city":"Kraków","postcode":"30-382","address":"Kobierzyńska 144 ","id":"KRA09MP"},{"city":"Kraków","postcode":"31-711","address":"Jagiełły 31A ","id":"KRA09N"},{"city":"Kraków","postcode":"31-625","address":"os. Piastów 60A ","id":"KRA10A"},{"city":"Kraków","postcode":"30-563","address":"Malborska 1 ","id":"KRA10AP"},{"city":"Kraków","postcode":"30-390","address":"Zawiła 62 ","id":"KRA10I"},{"city":"Kraków","postcode":"31-813","address":"Kalinowe 12 ","id":"KRA10M"},{"city":"Kraków","postcode":"30-418","address":"Zakopiańska 48 ","id":"KRA10MP"},{"city":"Kraków","postcode":"31-878","address":"Orlińskiego 1 ","id":"KRA10N"},{"city":"Kraków","postcode":"31-637","address":"Okulickiego 51 ","id":"KRA11A"},{"city":"Kraków","postcode":"30-347","address":"Kapelanka 2 ","id":"KRA11AP"},{"city":"Kraków","postcode":"31-564","address":"al. Pokoju 62A ","id":"KRA11N"},{"city":"Kraków","postcode":"30-074","address":"Kazimierza Wielkiego 121 ","id":"KRA120"},{"city":"Kraków","postcode":"31-510","address":"Rakowicka 27 ","id":"KRA124"},{"city":"Kraków","postcode":"30-663","address":"Wielicka 259 ","id":"KRA12A"},{"city":"Kraków","postcode":"31-406","address":"al. 29 Listopada 125 ","id":"KRA12AP"},{"city":"Kraków","postcode":"30-826","address":"Bieżanowska 72 ","id":"KRA12M"},{"city":"Kraków","postcode":"30-611","address":"Stanisława Stojałowskiego 12 ","id":"KRA12MP"},{"city":"Kraków","postcode":"31-801","address":"Broniewskiego 433 ","id":"KRA12N"},{"city":"Kraków","postcode":"31-462","address":"Pilotów 4B ","id":"KRA132"},{"city":"Kraków","postcode":"31-536","address":"Podgórska 32 ","id":"KRA139"},{"city":"Kraków","postcode":"31-842","address":"Kazimierzowskie 30 ","id":"KRA13M"},{"city":"Kraków","postcode":"31-422","address":"Powstańców 28 ","id":"KRA13MP"},{"city":"Kraków","postcode":"31-589","address":"Sołtysowska 16 ","id":"KRA13N"},{"city":"Kraków","postcode":"31-445","address":"Mogilska 122 ","id":"KRA148"},{"city":"Kraków","postcode":"31-346","address":"Jasnogórska 2B ","id":"KRA149"},{"city":"Kraków","postcode":"31-630","address":"os. Kombatantów 16 ","id":"KRA14A"},{"city":"Kraków","postcode":"30-081","address":"Królewska 57 ","id":"KRA14AP"},{"city":"Kraków","postcode":"30-319","address":"Rynek Dębnicki  ","id":"KRA14M"},{"city":"Kraków","postcode":"31-949","address":"Klasztorna 23 ","id":"KRA14N"},{"city":"Kraków","postcode":"30-863","address":"Ćwiklińskiej 14 ","id":"KRA15A"},{"city":"Kraków","postcode":"31-637","address":"Okulickiego 55 ","id":"KRA15AP"},{"city":"Kraków","postcode":"31-907","address":"Wandy 33 ","id":"KRA15M"},{"city":"Kraków","postcode":"30-898","address":"Sucharskiego 88 ","id":"KRA15N"},{"city":"Kraków","postcode":"31-422","address":"Strzelców 26 ","id":"KRA16A"},{"city":"Kraków","postcode":"30-707","address":"Powstańców Wielkopolskich 13 ","id":"KRA16AP"},{"city":"Kraków","postcode":"31-867","address":"os. 2 Pułku Lotniczego 2B ","id":"KRA16M"},{"city":"Kraków","postcode":"31-457","address":"Meissnera 30 ","id":"KRA16N"},{"city":"Kraków","postcode":"31-462","address":"Pilotów 2 ","id":"KRA17AP"},{"city":"Kraków","postcode":"30-863","address":"Ćwiklińskiej 12 ","id":"KRA17M"},{"city":"Kraków","postcode":"31-537","address":"al. Ignacego Daszyńskiego 3B ","id":"KRA17N"},{"city":"Kraków","postcode":"31-217","address":"Grażyny 6 ","id":"KRA18A"},{"city":"Kraków","postcode":"31-272","address":"Krowoderskich Zuchów 22 ","id":"KRA18AP"},{"city":"Kraków","postcode":"31-934","address":"Centrum E 9 ","id":"KRA18M"},{"city":"Kraków","postcode":"31-851","address":"Marii Dąbrowskiej 25 ","id":"KRA18N"},{"city":"Kraków","postcode":"31-154","address":"Pawia 5 ","id":"KRA19A"},{"city":"Kraków","postcode":"30-363","address":"Kobierzyńska 42 ","id":"KRA19AP"},{"city":"Kraków","postcode":"30-198","address":"Majora Łupaszki  ","id":"KRA19M"},{"city":"Kraków","postcode":"30-348","address":"Bobrzyńskiego 33 ","id":"KRA19N"},{"city":"Kraków","postcode":"30-693","address":"Bochenka 10 ","id":"KRA20A"},{"city":"Kraków","postcode":"30-394","address":"Skotnicka 78 ","id":"KRA20M"},{"city":"Kraków","postcode":"30-717","address":"Koszykarska 27A ","id":"KRA20N"},{"city":"Kraków","postcode":"30-218","address":"Królowej Jadwigi 242 ","id":"KRA21A"},{"city":"Kraków","postcode":"30-836","address":"Jerzmanowskiego 33A ","id":"KRA21M"},{"city":"Kraków","postcode":"31-234","address":"Kuźnicy Kołłątajowskiej 20 ","id":"KRA21N"},{"city":"Kraków","postcode":"31-476","address":"Lublańska 16A ","id":"KRA22M"},{"city":"Kraków","postcode":"31-201","address":"Bratysławska 4 ","id":"KRA23A"},{"city":"Kraków","postcode":"31-516","address":"Rondo Mogilskie 1 ","id":"KRA23M"},{"city":"Kraków","postcode":"30-348","address":"Grota Roweckiego 33 ","id":"KRA23N"},{"city":"Kraków","postcode":"30-149","address":"Balicka 16 ","id":"KRA24A"},{"city":"Kraków","postcode":"30-075","address":"Racławicka 21 ","id":"KRA24M"},{"city":"Kraków","postcode":"30-376","address":"Skalica 28A ","id":"KRA24N"},{"city":"Kraków","postcode":"30-639","address":"Witosa 7 ","id":"KRA25A"},{"city":"Kraków","postcode":"30-611","address":"Wysłouchów 27A ","id":"KRA25M"},{"city":"Kraków","postcode":"30-376","address":"Norymberska 1 ","id":"KRA26A"},{"city":"Kraków","postcode":"31-564","address":"Al. Pokoju 32 ","id":"KRA26M"},{"city":"Kraków","postcode":"31-752","address":"Makuszyńskiego 26 ","id":"KRA26N"},{"city":"Kraków","postcode":"30-072","address":"Rostafińskiego 10 ","id":"KRA27A"},{"city":"Kraków","postcode":"30-698","address":"Chałubińskiego 82 ","id":"KRA27M"},{"city":"Kraków","postcode":"30-252","address":"Przegorzalska 2 ","id":"KRA27N"},{"city":"Kraków","postcode":"30-243","address":"Ks. Józefa 357 ","id":"KRA28A"},{"city":"Kraków","postcode":"30-552","address":"Wielicka 77 ","id":"KRA28M"},{"city":"Kraków","postcode":"31-346","address":"Stawowa 61 ","id":"KRA28N"},{"city":"Kraków","postcode":"30-389","address":"Komuny Paryskiej 1A ","id":"KRA29A"},{"city":"Kraków","postcode":"30-798","address":"Agatowa 31 ","id":"KRA29M"},{"city":"Kraków","postcode":"30-718","address":"Myśliwska 57 ","id":"KRA29N"},{"city":"Kraków","postcode":"30-081","address":"Królewska 55 ","id":"KRA30A"},{"city":"Kraków","postcode":"30-863","address":"Ćwiklińskiej 1 ","id":"KRA30M"},{"city":"Kraków","postcode":"31-876","address":"Bora Komorowskiego 39 ","id":"KRA31A"},{"city":"Kraków","postcode":"31-580","address":"Wysockiej 1 ","id":"KRA31M"},{"city":"Kraków","postcode":"31-618","address":"Złotego Wieku 75 ","id":"KRA31N"},{"city":"Kraków","postcode":"30-347","address":"Kapelanka 14 ","id":"KRA32A"},{"city":"Kraków","postcode":"30-383","address":"Lubostroń 15 ","id":"KRA32N"},{"city":"Kraków","postcode":"30-399","address":"Mieczysława Wrony 128 ","id":"KRA33A"},{"city":"Kraków","postcode":"30-389","address":"Kamieniecka 16 ","id":"KRA33M"},{"city":"Kraków","postcode":"31-764","address":"Kocmyrzowska 43 ","id":"KRA33N"},{"city":"Kraków","postcode":"31-234","address":"Dożynkowa 11 ","id":"KRA34A"},{"city":"Kraków","postcode":"30-404","address":"Cegielniana 2 ","id":"KRA34M"},{"city":"Kraków","postcode":"30-198","address":"Kazimierza Wierzyńskiego 20 ","id":"KRA34N"},{"city":"Kraków","postcode":"30-059","address":"Reymonta 17 ","id":"KRA35A"},{"city":"Kraków","postcode":"30-509","address":"Kalwaryjska 9 ","id":"KRA35M"},{"city":"Kraków","postcode":"30-383","address":"Obozowa 46 ","id":"KRA35N"},{"city":"Kraków","postcode":"30-437","address":"Forteczna 51 ","id":"KRA36A"},{"city":"Kraków","postcode":"31-222","address":"Glogera 26 ","id":"KRA36M"},{"city":"Kraków","postcode":"31-834","address":"os. Jagiellońskie 19 ","id":"KRA37A"},{"city":"Kraków","postcode":"31-858","address":"Kościuszkowskie 5 ","id":"KRA37N"},{"city":"Kraków","postcode":"31-982","address":"al. Jana Pawła II 196 ","id":"KRA38A"},{"city":"Kraków","postcode":"31-445","address":"Mogilska 116 ","id":"KRA38M"},{"city":"Kraków","postcode":"31-334","address":"Łokietka 254 ","id":"KRA38N"},{"city":"Kraków","postcode":"31-636","address":"os. Oświecenia 22A ","id":"KRA39A"},{"city":"Kraków","postcode":"30-438","address":"Borkowska 1 ","id":"KRA39M"},{"city":"Kraków","postcode":"31-808","address":"Strusia 12 ","id":"KRA39N"},{"city":"Kraków","postcode":"31-325","address":"Makowskiego 4 ","id":"KRA40A"},{"city":"Kraków","postcode":"31-223","address":"Pachońskiego 5B ","id":"KRA40M"},{"city":"Kraków","postcode":"31-982","address":"Bp. Tomickiego 4 ","id":"KRA40N"},{"city":"Kraków","postcode":"30-065","address":"Tokarskiego 10 ","id":"KRA41A"},{"city":"Kraków","postcode":"31-625","address":"Osiedle Piastów 63 ","id":"KRA41M"},{"city":"Kraków","postcode":"31-274","address":"Opolska 9 ","id":"KRA41N"},{"city":"Kraków","postcode":"30-376","address":"Tyniecka 161 ","id":"KRA42M"},{"city":"Kraków","postcode":"31-580","address":"Al. Pokoju 67 ","id":"KRA42N"},{"city":"Kraków","postcode":"31-750","address":"Kocmyrzowska 2B ","id":"KRA43A"},{"city":"Kraków","postcode":"31-275","address":"Opolska 5 ","id":"KRA43M"},{"city":"Kraków","postcode":"30-397","address":"Kozienicka 1 ","id":"KRA43N"},{"city":"Kraków","postcode":"30-612","address":"Witosa 4 ","id":"KRA44A"},{"city":"Kraków","postcode":"31-636","address":"Bohdana Arcta 29 ","id":"KRA44M"},{"city":"Kraków","postcode":"30-398","address":"Bogucianka 74 ","id":"KRA44N"},{"city":"Kraków","postcode":"31-864","address":"Życzkowskiego 19 ","id":"KRA45A"},{"city":"Kraków","postcode":"31-460","address":"Ułanów 44A ","id":"KRA45M"},{"city":"Kraków","postcode":"30-382","address":"Kobierzyńska 106 ","id":"KRA46A"},{"city":"Kraków","postcode":"30-716","address":"Przewóz 2 ","id":"KRA46M"},{"city":"Kraków","postcode":"31-436","address":"Wieniawskiego 61A ","id":"KRA46N"},{"city":"Kraków","postcode":"30-384","address":"Kobierzyńska 161 ","id":"KRA47A"},{"city":"Kraków","postcode":"30-718","address":"Myśliwska 51 ","id":"KRA47M"},{"city":"Kraków","postcode":"31-571","address":"Lema 24 ","id":"KRA47N"},{"city":"Kraków","postcode":"31-210","address":"Mackiewicza 17 ","id":"KRA48A"},{"city":"Kraków","postcode":"30-133","address":"Juliusza Lea 213 ","id":"KRA48M"},{"city":"Kraków","postcode":"31-861","address":"Niepodległości 3 ","id":"KRA48N"},{"city":"Kraków","postcode":"30-699","address":"Kuryłowicza 85 ","id":"KRA49A"},{"city":"Kraków","postcode":"31-236","address":"Meiera 11 ","id":"KRA49M"},{"city":"Kraków","postcode":"31-990","address":"Glinik 43 ","id":"KRA49N"},{"city":"Kraków","postcode":"30-394","address":"Podole 76 ","id":"KRA50A"},{"city":"Kraków","postcode":"31-564","address":"Al. Pokoju 16 ","id":"KRA50M"},{"city":"Kraków","postcode":"30-614","address":"Cechowa 2 ","id":"KRA51M"},{"city":"Kraków","postcode":"31-845","address":"Przy Arce 22 ","id":"KRA51N"},{"city":"Kraków","postcode":"30-725","address":"Węglarska 4 ","id":"KRA52M"},{"city":"Kraków","postcode":"30-864","address":"Mała Góra 16 ","id":"KRA53N"},{"city":"Kraków","postcode":"30-418","address":"Zakopiańska 107 ","id":"KRA547"},{"city":"Kraków","postcode":"30-392","address":"Czerwone Maki 33 ","id":"KRA54M"},{"city":"Kraków","postcode":"30-086","address":"Głowackiego /","id":"KRA55M"},{"city":"Kraków","postcode":"31-939","address":"os. Kolorowe 11A ","id":"KRA56M"},{"city":"Kraków","postcode":"31-519","address":"Domki 5 ","id":"KRA57M"},{"city":"Kraków","postcode":"31-624","address":"oś. Piastów 21 ","id":"KRA58M"},{"city":"Kraków","postcode":"30-334","address":"Komandosów 21 ","id":"KRA59M"},{"city":"Kraków","postcode":"31-231","address":"Siewna 17 ","id":"KRA60M"},{"city":"Kraków","postcode":"30-798","address":"Wrobela 67 ","id":"KRA61M"},{"city":"Kraków","postcode":"30-349","address":"Miłkowskiego 3 ","id":"KRA62M"},{"city":"Kraków","postcode":"30-624","address":"Malborska 107 ","id":"KRA63M"},{"city":"Kraków","postcode":"30-664","address":"Na Kozłówce 3 ","id":"KRA64M"},{"city":"Kraków","postcode":"30-134","address":"Kołowa 8 ","id":"KRA65M"},{"city":"Kraków","postcode":"30-422","address":"Orzechowa 5 ","id":"KRA66M"},{"city":"Kraków","postcode":"30-322","address":"Praska 61A ","id":"KRA67M"},{"city":"Kraków","postcode":"30-798","address":"Agatowa 1 ","id":"KRA68M"},{"city":"Kraków","postcode":"31-355","address":"Opolska 114 ","id":"KRA69M"},{"city":"Kraków","postcode":"31-306","address":"Niska 2 ","id":"KRA70M"},{"city":"Kraków","postcode":"31-357","address":"Josepha Conrada 36 ","id":"KRA71M"},{"city":"Kraków","postcode":"31-705","address":"Stanisława Klimeckiego 1 ","id":"KRA72M"},{"city":"Kraków","postcode":"31-421","address":"Reduta 26 ","id":"KRA73M"},{"city":"Kraków","postcode":"30-664","address":"Na Kozłówce 10 ","id":"KRA74M"},{"city":"Kraków","postcode":"30-001","address":"Tischnera 10 ","id":"KRA75M"},{"city":"Kraków","postcode":"30-084","address":"Bronowicka 15 ","id":"KRA846"},{"city":"Kraków","postcode":"30-107","address":"Plac Na Stawach 7 ","id":"KRA947"}]
